[{"OBJECT_NAME":"SARAL","OBJECT_ID":"2013-009A","EPOCH":"2026-04-26T20:30:54.137664","MEAN_MOTION":14.32843003,"ECCENTRICITY":0.0002991,"INCLINATION":98.5566,"RA_OF_ASC_NODE":304.0703,"ARG_OF_PERICENTER":82.2397,"MEAN_ANOMALY":277.9127,"EPHEMERIS_TYPE":0,"CLASSIFICATION_TYPE":"U","NORAD_CAT_ID":39086,"ELEMENT_SET_NO":999,"REV_AT_EPOCH":68825,"BSTAR":6.093e-5,"MEAN_MOTION_DOT":1.23e-6,"MEAN_MOTION_DDOT":0},{"OBJECT_NAME":"GAOFEN-1","OBJECT_ID":"2013-018A","EPOCH":"2026-04-26T19:56:27.047040","MEAN_MOTION":14.76516413,"ECCENTRICITY":0.0018455,"INCLINATION":97.9109,"RA_OF_ASC_NODE":189.9368,"ARG_OF_PERICENTER":73.0595,"MEAN_ANOMALY":287.2636,"EPHEMERIS_TYPE":0,"CLASSIFICATION_TYPE":"U","NORAD_CAT_ID":39150,"ELEMENT_SET_NO":999,"REV_AT_EPOCH":70066,"BSTAR":0.00011175,"MEAN_MOTION_DOT":7.3e-6,"MEAN_MOTION_DDOT":0},{"OBJECT_NAME":"VNREDSAT 1","OBJECT_ID":"2013-021B","EPOCH":"2026-04-26T20:36:22.323744","MEAN_MOTION":14.64951223,"ECCENTRICITY":0.0001273,"INCLINATION":97.9124,"RA_OF_ASC_NODE":172.2345,"ARG_OF_PERICENTER":88.5156,"MEAN_ANOMALY":271.6194,"EPHEMERIS_TYPE":0,"CLASSIFICATION_TYPE":"U","NORAD_CAT_ID":39160,"ELEMENT_SET_NO":999,"REV_AT_EPOCH":69277,"BSTAR":8.2539e-5,"MEAN_MOTION_DOT":3.96e-6,"MEAN_MOTION_DDOT":0},{"OBJECT_NAME":"ARIRANG-5 (KOMPSAT-5)","OBJECT_ID":"2013-042A","EPOCH":"2026-04-26T19:43:16.220928","MEAN_MOTION":15.04500884,"ECCENTRICITY":0.0002612,"INCLINATION":97.621,"RA_OF_ASC_NODE":304.2416,"ARG_OF_PERICENTER":342.5316,"MEAN_ANOMALY":17.5819,"EPHEMERIS_TYPE":0,"CLASSIFICATION_TYPE":"U","NORAD_CAT_ID":39227,"ELEMENT_SET_NO":999,"REV_AT_EPOCH":69613,"BSTAR":6.9789e-5,"MEAN_MOTION_DOT":9.16e-6,"MEAN_MOTION_DDOT":0},{"OBJECT_NAME":"SKYSAT-A","OBJECT_ID":"2013-066C","EPOCH":"2026-04-26T17:33:21.289824","MEAN_MOTION":15.12671333,"ECCENTRICITY":0.0022966,"INCLINATION":97.3865,"RA_OF_ASC_NODE":167.7672,"ARG_OF_PERICENTER":129.8769,"MEAN_ANOMALY":230.4487,"EPHEMERIS_TYPE":0,"CLASSIFICATION_TYPE":"U","NORAD_CAT_ID":39418,"ELEMENT_SET_NO":999,"REV_AT_EPOCH":68070,"BSTAR":0.00021433,"MEAN_MOTION_DOT":3.708e-5,"MEAN_MOTION_DDOT":0},{"OBJECT_NAME":"DUBAISAT-2","OBJECT_ID":"2013-066D","EPOCH":"2026-04-26T20:17:56.044320","MEAN_MOTION":15.0979975,"ECCENTRICITY":0.0010359,"INCLINATION":97.4564,"RA_OF_ASC_NODE":108.355,"ARG_OF_PERICENTER":201.8004,"MEAN_ANOMALY":158.2786,"EPHEMERIS_TYPE":0,"CLASSIFICATION_TYPE":"U","NORAD_CAT_ID":39419,"ELEMENT_SET_NO":999,"REV_AT_EPOCH":67864,"BSTAR":0.00032,"MEAN_MOTION_DOT":5.115e-5,"MEAN_MOTION_DDOT":0},{"OBJECT_NAME":"GPM-CORE","OBJECT_ID":"2014-009C","EPOCH":"2026-04-26T19:30:50.258016","MEAN_MOTION":15.44663543,"ECCENTRICITY":0.0012218,"INCLINATION":64.9707,"RA_OF_ASC_NODE":120.2865,"ARG_OF_PERICENTER":260.505,"MEAN_ANOMALY":99.471,"EPHEMERIS_TYPE":0,"CLASSIFICATION_TYPE":"U","NORAD_CAT_ID":39574,"ELEMENT_SET_NO":999,"REV_AT_EPOCH":68987,"BSTAR":0.00016185,"MEAN_MOTION_DOT":7.355e-5,"MEAN_MOTION_DDOT":0},{"OBJECT_NAME":"SENTINEL-1A","OBJECT_ID":"2014-016A","EPOCH":"2026-04-26T20:53:20.736096","MEAN_MOTION":14.59199869,"ECCENTRICITY":0.0001414,"INCLINATION":98.1804,"RA_OF_ASC_NODE":125.1495,"ARG_OF_PERICENTER":83.8184,"MEAN_ANOMALY":276.3177,"EPHEMERIS_TYPE":0,"CLASSIFICATION_TYPE":"U","NORAD_CAT_ID":39634,"ELEMENT_SET_NO":999,"REV_AT_EPOCH":64253,"BSTAR":3.2008e-5,"MEAN_MOTION_DOT":1.05e-6,"MEAN_MOTION_DDOT":0},{"OBJECT_NAME":"KAZEOSAT 1","OBJECT_ID":"2014-024A","EPOCH":"2026-04-26T19:34:15.447648","MEAN_MOTION":14.42058497,"ECCENTRICITY":0.0001435,"INCLINATION":98.3218,"RA_OF_ASC_NODE":190.5356,"ARG_OF_PERICENTER":98.8635,"MEAN_ANOMALY":261.2717,"EPHEMERIS_TYPE":0,"CLASSIFICATION_TYPE":"U","NORAD_CAT_ID":39731,"ELEMENT_SET_NO":999,"REV_AT_EPOCH":63115,"BSTAR":6.237e-5,"MEAN_MOTION_DOT":1.62e-6,"MEAN_MOTION_DDOT":0},{"OBJECT_NAME":"ALOS-2","OBJECT_ID":"2014-029A","EPOCH":"2026-04-26T19:20:24.921600","MEAN_MOTION":14.79476246,"ECCENTRICITY":0.0001764,"INCLINATION":97.9197,"RA_OF_ASC_NODE":214.7045,"ARG_OF_PERICENTER":84.6819,"MEAN_ANOMALY":275.4594,"EPHEMERIS_TYPE":0,"CLASSIFICATION_TYPE":"U","NORAD_CAT_ID":39766,"ELEMENT_SET_NO":999,"REV_AT_EPOCH":64398,"BSTAR":-3.9404e-5,"MEAN_MOTION_DOT":-3.46e-6,"MEAN_MOTION_DDOT":0},{"OBJECT_NAME":"KAZEOSAT 2","OBJECT_ID":"2014-033A","EPOCH":"2026-04-26T19:59:33.589824","MEAN_MOTION":14.85405519,"ECCENTRICITY":0.0009762,"INCLINATION":97.5455,"RA_OF_ASC_NODE":319.1493,"ARG_OF_PERICENTER":122.9817,"MEAN_ANOMALY":237.2338,"EPHEMERIS_TYPE":0,"CLASSIFICATION_TYPE":"U","NORAD_CAT_ID":40010,"ELEMENT_SET_NO":999,"REV_AT_EPOCH":64133,"BSTAR":3.6535e-5,"MEAN_MOTION_DOT":2.65e-6,"MEAN_MOTION_DDOT":0},{"OBJECT_NAME":"HODOYOSHI-4","OBJECT_ID":"2014-033B","EPOCH":"2026-04-26T19:04:48.396576","MEAN_MOTION":14.87999109,"ECCENTRICITY":0.0025004,"INCLINATION":97.5463,"RA_OF_ASC_NODE":304.102,"ARG_OF_PERICENTER":114.5358,"MEAN_ANOMALY":245.847,"EPHEMERIS_TYPE":0,"CLASSIFICATION_TYPE":"U","NORAD_CAT_ID":40011,"ELEMENT_SET_NO":999,"REV_AT_EPOCH":64116,"BSTAR":0.00017894,"MEAN_MOTION_DOT":1.599e-5,"MEAN_MOTION_DDOT":0},{"OBJECT_NAME":"DEIMOS-2","OBJECT_ID":"2014-033D","EPOCH":"2026-04-26T19:12:46.934208","MEAN_MOTION":14.93576698,"ECCENTRICITY":0.00022,"INCLINATION":97.5898,"RA_OF_ASC_NODE":353.08,"ARG_OF_PERICENTER":103.4694,"MEAN_ANOMALY":256.6771,"EPHEMERIS_TYPE":0,"CLASSIFICATION_TYPE":"U","NORAD_CAT_ID":40013,"ELEMENT_SET_NO":999,"REV_AT_EPOCH":63005,"BSTAR":0.00017554,"MEAN_MOTION_DOT":1.797e-5,"MEAN_MOTION_DDOT":0},{"OBJECT_NAME":"HODOYOSHI-3","OBJECT_ID":"2014-033F","EPOCH":"2026-04-26T17:12:30.420000","MEAN_MOTION":14.85270647,"ECCENTRICITY":0.0033435,"INCLINATION":97.6373,"RA_OF_ASC_NODE":281.8473,"ARG_OF_PERICENTER":161.7388,"MEAN_ANOMALY":198.5037,"EPHEMERIS_TYPE":0,"CLASSIFICATION_TYPE":"U","NORAD_CAT_ID":40015,"ELEMENT_SET_NO":999,"REV_AT_EPOCH":63998,"BSTAR":0.00015843,"MEAN_MOTION_DOT":1.321e-5,"MEAN_MOTION_DDOT":0},{"OBJECT_NAME":"SPOT 7","OBJECT_ID":"2014-034A","EPOCH":"2026-04-26T19:32:07.643904","MEAN_MOTION":14.60911109,"ECCENTRICITY":0.0001569,"INCLINATION":98.0661,"RA_OF_ASC_NODE":180.6221,"ARG_OF_PERICENTER":78.6322,"MEAN_ANOMALY":281.5055,"EPHEMERIS_TYPE":0,"CLASSIFICATION_TYPE":"U","NORAD_CAT_ID":40053,"ELEMENT_SET_NO":999,"REV_AT_EPOCH":62963,"BSTAR":6.9269e-5,"MEAN_MOTION_DOT":2.94e-6,"MEAN_MOTION_DDOT":0},{"OBJECT_NAME":"SKYSAT-B","OBJECT_ID":"2014-037D","EPOCH":"2026-04-26T19:34:38.702208","MEAN_MOTION":14.8788748,"ECCENTRICITY":0.0007024,"INCLINATION":98.3799,"RA_OF_ASC_NODE":72.8711,"ARG_OF_PERICENTER":85.5787,"MEAN_ANOMALY":274.623,"EPHEMERIS_TYPE":0,"CLASSIFICATION_TYPE":"U","NORAD_CAT_ID":40072,"ELEMENT_SET_NO":999,"REV_AT_EPOCH":63832,"BSTAR":0.00016488,"MEAN_MOTION_DOT":1.448e-5,"MEAN_MOTION_DDOT":0},{"OBJECT_NAME":"WORLDVIEW-3 (WV-3)","OBJECT_ID":"2014-048A","EPOCH":"2026-04-26T19:43:40.992672","MEAN_MOTION":14.84933807,"ECCENTRICITY":0.0002846,"INCLINATION":97.8578,"RA_OF_ASC_NODE":192.3637,"ARG_OF_PERICENTER":107.9404,"MEAN_ANOMALY":252.2121,"EPHEMERIS_TYPE":0,"CLASSIFICATION_TYPE":"U","NORAD_CAT_ID":40115,"ELEMENT_SET_NO":999,"REV_AT_EPOCH":63428,"BSTAR":0.00010415,"MEAN_MOTION_DOT":8.33e-6,"MEAN_MOTION_DDOT":0}]
