SARAL                   
1 39086U 13009A   26116.85479326  .00000123  00000+0  60930-4 0  9996
2 39086  98.5566 304.0703 0002991  82.2397 277.9127 14.32843003688258
GAOFEN-1                
1 39150U 13018A   26116.83086860  .00000730  00000+0  11175-3 0  9993
2 39150  97.9109 189.9368 0018455  73.0595 287.2636 14.76516413700662
VNREDSAT 1              
1 39160U 13021B   26116.85859171  .00000396  00000+0  82539-4 0  9994
2 39160  97.9124 172.2345 0001273  88.5156 271.6194 14.64951223692771
ARIRANG-5 (KOMPSAT-5)   
1 39227U 13042A   26116.82171552  .00000916  00000+0  69789-4 0  9998
2 39227  97.6210 304.2416 0002612 342.5316  17.5819 15.04500884696136
SKYSAT-A                
1 39418U 13066C   26116.73149641  .00003708  00000+0  21433-3 0  9995
2 39418  97.3865 167.7672 0022966 129.8769 230.4487 15.12671333680709
DUBAISAT-2              
1 39419U 13066D   26116.84578755  .00005115  00000+0  32000-3 0  9996
2 39419  97.4564 108.3550 0010359 201.8004 158.2786 15.09799750678648
GPM-CORE                
1 39574U 14009C   26116.81308169  .00007355  00000+0  16185-3 0  9997
2 39574  64.9707 120.2865 0012218 260.5050  99.4710 15.44663543689878
SENTINEL-1A             
1 39634U 14016A   26116.87037889  .00000105  00000+0  32008-4 0  9995
2 39634  98.1804 125.1495 0001414  83.8184 276.3177 14.59199869642530
KAZEOSAT 1              
1 39731U 14024A   26116.81545657  .00000162  00000+0  62370-4 0  9991
2 39731  98.3218 190.5356 0001435  98.8635 261.2717 14.42058497631153
ALOS-2                  
1 39766U 14029A   26116.80584400 -.00000346  00000+0 -39404-4 0  9990
2 39766  97.9197 214.7045 0001764  84.6819 275.4594 14.79476246643988
KAZEOSAT 2              
1 40010U 14033A   26116.83302766  .00000265  00000+0  36535-4 0  9995
2 40010  97.5455 319.1493 0009762 122.9817 237.2338 14.85405519641333
HODOYOSHI-4             
1 40011U 14033B   26116.79500459  .00001599  00000+0  17894-3 0  9997
2 40011  97.5463 304.1020 0025004 114.5358 245.8470 14.87999109641165
DEIMOS-2                
1 40013U 14033D   26116.80054322  .00001797  00000+0  17554-3 0  9997
2 40013  97.5898 353.0800 0002200 103.4694 256.6771 14.93576698630052
HODOYOSHI-3             
1 40015U 14033F   26116.71701875  .00001321  00000+0  15843-3 0  9993
2 40015  97.6373 281.8473 0033435 161.7388 198.5037 14.85270647639984
SPOT 7                  
1 40053U 14034A   26116.81397736  .00000294  00000+0  69269-4 0  9994
2 40053  98.0661 180.6221 0001569  78.6322 281.5055 14.60911109629637
SKYSAT-B                
1 40072U 14037D   26116.81572572  .00001448  00000+0  16488-3 0  9997
2 40072  98.3799  72.8711 0007024  85.5787 274.6230 14.87887480638320
WORLDVIEW-3 (WV-3)      
1 40115U 14048A   26116.82200223  .00000833  00000+0  10415-3 0  9990
2 40115  97.8578 192.3637 0002846 107.9404 252.2121 14.84933807634288
